NORAD_CAT_ID,OBJECT_NAME,OBJECT_TYPE,EPOCH,MEAN_MOTION,ECCENTRICITY,INCLINATION,RA_OF_ASC_NODE,ARG_OF_PERICENTER,MEAN_ANOMALY,BSTAR,MEAN_MOTION_DOT,MEAN_MOTION_DDOT,TLE_LINE0,TLE_LINE1,TLE_LINE2,SEMIMAJOR_AXIS,PERIOD,APOGEE,PERIGEE,DECAYED
53983.0,STARLINK-5103,PAYLOAD,2022-10-27 18:00:00,15.73267512,0.0003206,53.2169,343.7467,13.2646,49.1808,-0.00040648,-0.00057464,0.0,0 STARLINK-5103,1 53983U 22125V   22300.75001157 -.00057464  00000-0 -40648-3 0  9996,2 53983  53.2169 343.7467 0003206  13.2646  49.1808 15.73267512  3825,6727.703,91.529,351.725,347.411,0.0
53983.0,STARLINK-5103,PAYLOAD,2022-10-27 22:00:00,15.7325106,0.0003072,53.2173,342.9208,14.2956,272.6598,-0.00016721,-0.0002408,0.0,0 STARLINK-5103,1 53983U 22125V   22300.91667824 -.00024080  00000-0 -16721-3 0  9996,2 53983  53.2173 342.9208 0003072  14.2956 272.6598 15.73251060  1301,6727.75,91.53,351.681,347.548,0.0
53983.0,STARLINK-5103,PAYLOAD,2022-10-28 04:00:00,15.73257704,0.0003076,53.2174,341.6834,16.8668,246.8221,-0.00041973,-0.00059277,0.0,0 STARLINK-5103,1 53983U 22125V   22301.16667824 -.00059277  00000-0 -41973-3 0  9997,2 53983  53.2174 341.6834 0003076  16.8668 246.8221 15.73257704  3887,6727.731,91.53,351.665,347.526,0.0
53983.0,STARLINK-5103,PAYLOAD,2022-10-28 14:00:01,15.73211353,0.0003407,53.2169,339.6233,15.7257,89.2367,-4.345600000000001e-05,-6.723e-05,0.0,0 STARLINK-5103,1 53983U 22125V   22301.58335648 -.00006723  00000-0 -43456-4 0  9996,2 53983  53.2169 339.6233 0003407  15.7257  89.2367 15.73211353  1306,6727.863,91.533,352.02,347.436,0.0
53983.0,STARLINK-5103,PAYLOAD,2022-10-28 20:00:01,15.73212856,0.0003188999999999,53.2168,338.3845,15.0012,66.6028,-0.00020742,-0.00029655,0.0,0 STARLINK-5103,1 53983U 22125V   22301.83334491 -.00029655  00000-0 -20742-3 0  9990,2 53983  53.2168 338.3845 0003189  15.0012  66.6028 15.73212856  3998,6727.859,91.532,351.869,347.57800000000015,0.0
53983.0,STARLINK-5103,PAYLOAD,2022-10-28 22:00:01,15.73206435,0.0003119,53.2168,337.9717,14.5894,179.3158,-0.00016218,-0.00023333,0.0,0 STARLINK-5103,1 53983U 22125V   22301.91668981 -.00023333  00000-0 -16218-3 0  9993,2 53983  53.2168 337.9717 0003119  14.5894 179.3158 15.73206435  1301,6727.877,91.533,351.84,347.64300000000014,0.0
53983.0,STARLINK-5103,PAYLOAD,2022-10-29 12:00:00,15.73153464,0.0003478999999999,53.2171,335.0872,18.4814,241.0029,0.00088927,0.00125843,0.0,0 STARLINK-5103,1 53983U 22125V   22302.50001157  .00125843  00000-0  88927-3 0  9998,2 53983  53.2171 335.0872 0003479  18.4814 241.0029 15.73153464  1307,6728.028,91.536,352.2340000000001,347.552,0.0
53983.0,STARLINK-5103,PAYLOAD,2022-10-29 22:00:01,15.73247574,0.0003221999999999,53.2173,333.023,17.9759,82.7437,0.00029449,0.00041002,0.0,0 STARLINK-5103,1 53983U 22125V   22302.91668981  .00041002  00000-0  29449-3 0  9995,2 53983  53.2173 333.0230 0003222  17.9759  82.7437 15.73247574  1302,6727.76,91.53,351.792,347.457,0.0
53983.0,STARLINK-5103,PAYLOAD,2022-10-30 00:00:00,15.73271798,0.0003171,53.2172,332.6102,17.9706,194.9273,-2.9512e-05,-4.777e-05,0.0,0 STARLINK-5103,1 53983U 22125V   22303.00001157 -.00004777  00000-0 -29512-4 0  9994,2 53983  53.2172 332.6102 0003171  17.9706 194.9273 15.73271798  4176,6727.69,91.529,351.689,347.422,0.0
53983.0,STARLINK-5103,PAYLOAD,2022-10-30 14:00:01,15.73188724,0.0003393999999999,53.217,329.7256,6.7174,271.9197,-0.00073605,-0.00102662,0.0,0 STARLINK-5103,1 53983U 22125V   22303.58334491 -.00102662  00000-0 -73605-3 0  9990,2 53983  53.2170 329.7256 0003394   6.7174 271.9197 15.73188724  1302,6727.927,91.534,352.076,347.509,0.0
53983.0,STARLINK-5103,PAYLOAD,2022-10-30 22:00:01,15.73073444,0.0003128,53.2169,328.0741,7.0658,0.5304,0.00035576,0.0004934,0.0,0 STARLINK-5103,1 53983U 22125V   22303.91668981  .00049340  00000-0  35576-3 0  9997,2 53983  53.2169 328.0741 0003128   7.0658   0.5304 15.73073444  1305,6728.255999999999,91.541,352.226,348.016,0.0
53983.0,STARLINK-5103,PAYLOAD,2022-10-31 14:00:01,15.73138815,0.0003457,53.2168,324.7778,9.744,175.4114,0.00059316,0.00083254,0.0,0 STARLINK-5103,1 53983U 22125V   22304.58334491  .00083254  00000-0  59316-3 0  9997,2 53983  53.2168 324.7778 0003457   9.7440 175.4114 15.73138815  1305,6728.07,91.537,352.261,347.6090000000001,0.0
53983.0,STARLINK-5103,PAYLOAD,2022-10-31 20:00:01,15.73195718,0.0003263999999999,53.2174,323.539,10.3777,151.5121,0.00027466,0.00038101,0.0,0 STARLINK-5103,1 53983U 22125V   22304.83335648  .00038101  00000-0  27466-3 0  9992,2 53983  53.2174 323.5390 0003264  10.3777 151.5121 15.73195718  4464,6727.906999999997,91.533,351.968,347.576,0.0
53983.0,STARLINK-5103,PAYLOAD,2022-10-31 22:00:01,15.73201084,0.0003228,53.2173,323.1263,10.3882,263.7353,0.00024648,0.00034119,0.0,0 STARLINK-5103,1 53983U 22125V   22304.91668981  .00034119  00000-0  24648-3 0  9994,2 53983  53.2173 323.1263 0003228  10.3882 263.7353 15.73201084  1302,6727.892,91.533,351.92900000000014,347.585,0.0
53983.0,STARLINK-5103,PAYLOAD,2022-11-01 14:00:01,15.73268112,0.0003529999999999,53.2169,319.8291,7.891,84.0751,-0.00031,-0.00044046,0.0,0 STARLINK-5103,1 53983U 22125V   22305.58334491 -.00044046  00000-0 -31000-3 0  9996,2 53983  53.2169 319.8291 0003530   7.8910  84.0751 15.73268112  1300,6727.701,91.529,351.941,347.191,0.0
53983.0,STARLINK-5103,PAYLOAD,2022-11-01 20:00:01,15.73237555,0.0003258,53.2171,318.5905,6.1871,62.5358,-0.00025825,-0.00036778,0.0,0 STARLINK-5103,1 53983U 22125V   22305.83334491 -.00036778  00000-0 -25825-3 0  9995,2 53983  53.2171 318.5905 0003258   6.1871  62.5358 15.73237555  4625,6727.788000000001,91.531,351.845,347.461,0.0
53983.0,STARLINK-5103,PAYLOAD,2022-11-01 22:00:00,15.73230334,0.0003221999999999,53.2168,318.1777,6.4039,174.5633,-0.00028285,-0.00040193,0.0,0 STARLINK-5103,1 53983U 22125V   22305.91667824 -.00040193  00000-0 -28285-3 0  9992,2 53983  53.2168 318.1777 0003222   6.4039 174.5633 15.73230334  1304,6727.809,91.531,351.841,347.506,0.0
53983.0,STARLINK-5103,PAYLOAD,2022-11-02 14:00:01,15.73162998,0.0003556,53.2166,314.8755,7.2589,351.55300000000005,0.00018613,0.00025545,0.0,0 STARLINK-5103,1 53983U 22125V   22306.58334491  .00025545  00000-0  18613-3 0  9993,2 53983  53.2166 314.8755 0003556   7.2589 351.5530 15.73162998  1303,6728.001,91.535,352.2580000000001,347.473,0.0
53983.0,STARLINK-5103,PAYLOAD,2022-11-02 22:00:00,15.73195286,0.0003312,53.2169,313.2295,10.8343,76.8604,0.00019362,0.00026638,0.0,0 STARLINK-5103,1 53983U 22125V   22306.91667824  .00026638  00000-0  19362-3 0  9995,2 53983  53.2169 313.2295 0003312  10.8343  76.8604 15.73195286  1301,6727.909000000002,91.533,352.00199999999984,347.545,0.0
53983.0,STARLINK-5103,PAYLOAD,2022-11-03 04:00:00,15.73220275,0.0003433,53.2171,311.9934,13.8531,50.5558,0.00019167,0.00026391,0.0,0 STARLINK-5103,1 53983U 22125V   22307.16667824  .00026391  00000-0  19167-3 0  9992,2 53983  53.2171 311.9934 0003433  13.8531  50.5558 15.73220275  4830,6727.837,91.532,352.01199999999994,347.39300000000014,0.0
53983.0,STARLINK-5103,PAYLOAD,2022-11-03 14:00:01,15.73282882,0.0003563999999999,53.2165,309.9321,11.8424,253.7612,-0.00040944,-0.00057918,0.0,0 STARLINK-5103,1 53983U 22125V   22307.58334491 -.00057918  00000-0 -40944-3 0  9997,2 53983  53.2165 309.9321 0003564  11.8424 253.7612 15.73282882  1303,6727.659000000002,91.528,351.922,347.126,0.0
53983.0,STARLINK-5103,PAYLOAD,2022-11-03 22:00:00,15.73230419,0.0003295,53.2164,308.2808,11.5101,343.115,0.00024524,0.00033987,0.0,0 STARLINK-5103,1 53983U 22125V   22307.91667824  .00033987  00000-0  24524-3 0  9997,2 53983  53.2164 308.2808 0003295  11.5101 343.1150 15.73230419  1304,6727.808000000001,91.531,351.89,347.457,0.0
53983.0,STARLINK-5103,PAYLOAD,2022-11-04 04:00:01,15.73283356,0.000337,53.2164,307.0448,11.1365,320.2797,-0.00066339,-0.00093067,0.0,0 STARLINK-5103,1 53983U 22125V   22308.16668981 -.00093067  00000-0 -66339-3 0  9997,2 53983  53.2164 307.0448 0003370  11.1365 320.2797 15.73283356  4981,6727.658,91.528,351.79,347.255,0.0
53983.0,STARLINK-5103,PAYLOAD,2022-11-04 14:00:01,15.73200188,0.0003513,53.2161,304.9831,8.1725,164.4056,-1.6265e-05,-2.907e-05,0.0,0 STARLINK-5103,1 53983U 22125V   22308.58334491 -.00002907  00000-0 -16265-4 0  9996,2 53983  53.2161 304.9831 0003513   8.1725 164.4056 15.73200188  1306,6727.895,91.533,352.12300000000016,347.396,0.0
53983.0,STARLINK-5103,PAYLOAD,2022-11-04 20:00:01,15.73191307,0.0003314,53.2163,303.7446,8.4796,140.7953,3.9416e-05,4.911e-05,0.0,0 STARLINK-5103,1 53983U 22125V   22308.83334491  .00004911  00000-0  39416-4 0  9992,2 53983  53.2163 303.7446 0003314   8.4796 140.7953 15.73191307  5092,6727.92,91.534,352.015,347.555,0.0
53983.0,STARLINK-5103,PAYLOAD,2022-11-04 22:00:01,15.73205596,0.0003283,53.2163,303.3318,9.5283,252.0387,-0.00019863,-0.00028421,0.0,0 STARLINK-5103,1 53983U 22125V   22308.91668981 -.00028421  00000-0 -19863-3 0  9992,2 53983  53.2163 303.3318 0003283   9.5283 252.0387 15.73205596  1308,6727.879,91.533,351.95300000000015,347.535,0.0
53983.0,STARLINK-5103,PAYLOAD,2022-11-05 04:00:00,15.73209916,0.0003402,53.2165,302.0961,10.4158,227.7752,-0.00093188,-0.0012952,0.0,0 STARLINK-5103,1 53983U 22125V   22309.16667824 -.00129520  00000-0 -93188-3 0  9999,2 53983  53.2165 302.0961 0003402  10.4158 227.7752 15.73209916  5146,6727.8669999999975,91.533,352.021,347.4430000000001,0.0
53983.0,STARLINK-5103,PAYLOAD,2022-11-05 12:00:00,15.73082462,0.0003594,53.2161,300.4475,7.02,320.059,0.00053532,0.00074819,0.0,0 STARLINK-5103,1 53983U 22125V   22309.50001157  .00074819  00000-0  53532-3 0  9995,2 53983  53.2161 300.4475 0003594   7.0200 320.0590 15.73082462  5193,6728.23,91.54,352.51300000000015,347.677,0.0
53983.0,STARLINK-5103,PAYLOAD,2022-11-05 14:00:01,15.73104489,0.0003523,53.216,300.0344,7.3648,71.9768,0.00034986,0.00048575,0.0,0 STARLINK-5103,1 53983U 22125V   22309.58335648  .00048575  00000-0  34986-3 0  9990,2 53983  53.2160 300.0344 0003523   7.3648  71.9768 15.73104489  1306,6728.167,91.539,352.403,347.662,0.0
